{"type": "FeatureCollection", "features": [ {"type": "Feature", "properties": {"norad_id": 66938, "name": "STARLINK-36155", "group": "last-30-days", "lat": -42.46297818593025, "lon": -127.44873140566648, "alt_km": 348.7595039899161, "timestamp": "2025-12-20T22:39:09.408947+00:00", "meta": {"OBJECT_NAME": "STARLINK-36155", "OBJECT_ID": "2025-286P", "EPOCH": "2025-12-20T14:00:03.000384", "MEAN_MOTION": 15.76444086, "ECCENTRICITY": 6.691e-05, "INCLINATION": 53.1561, "RA_OF_ASC_NODE": 11.0145, "ARG_OF_PERICENTER": 66.1414, "MEAN_ANOMALY": 285.0287, "EPHEMERIS_TYPE": 0, "CLASSIFICATION_TYPE": "U", "NORAD_CAT_ID": 66938, "ELEMENT_SET_NO": 999, "REV_AT_EPOCH": 325, "BSTAR": -0.0098327852, "MEAN_MOTION_DOT": -0.01410114, "MEAN_MOTION_DDOT": 0}, "tle": {"line1": "1 66938U 25286P   25354.58336806 -.01410114  00000+0 -98328-2 0  9998", "line2": "2 66938  53.1561  11.0145 0000669  66.1414 285.0287 15.76444086  3257"}}, "geometry": {"type": "Point", "coordinates": [-127.44873140566648, -42.46297818593025]}}, {"type": "Feature", "properties": {"norad_id": 66939, "name": "STARLINK-36154", "group": "last-30-days", "lat": -44.69793386377194, "lon": -122.88867369033139, "alt_km": 349.1213734715311, "timestamp": "2025-12-20T22:39:09.408955+00:00", "meta": {"OBJECT_NAME": "STARLINK-36154", "OBJECT_ID": "2025-286Q", "EPOCH": "2025-12-20T14:00:03.000384", "MEAN_MOTION": 15.76297695, "ECCENTRICITY": 7.272e-05, "INCLINATION": 53.1563, "RA_OF_ASC_NODE": 11.0057, "ARG_OF_PERICENTER": 82.4627, "MEAN_ANOMALY": 272.8584, "EPHEMERIS_TYPE": 0, "CLASSIFICATION_TYPE": "U", "NORAD_CAT_ID": 66939, "ELEMENT_SET_NO": 999, "REV_AT_EPOCH": 325, "BSTAR": -0.0094056057, "MEAN_MOTION_DOT": -0.01347672, "MEAN_MOTION_DDOT": 0}, "tle": {"line1": "1 66939U 25286Q   25354.58336806 -.01347672  00000+0 -94056-2 0  9991", "line2": "2 66939  53.1563  11.0057 0000727  82.4627 272.8584 15.76297695  3250"}}, "geometry": {"type": "Point", "coordinates": [-122.88867369033139, -44.69793386377194]}}, {"type": "Feature", "properties": {"norad_id": 66940, "name": "STARLINK-36121", "group": "last-30-days", "lat": -45.72160339853171, "lon": -120.53098630889379, "alt_km": 349.13453984642274, "timestamp": "2025-12-20T22:39:09.408966+00:00", "meta": {"OBJECT_NAME": "STARLINK-36121", "OBJECT_ID": "2025-286R", "EPOCH": "2025-12-20T14:00:03.000384", "MEAN_MOTION": 15.76271844, "ECCENTRICITY": 4.954e-05, "INCLINATION": 53.156, "RA_OF_ASC_NODE": 11.0011, "ARG_OF_PERICENTER": 79.6952, "MEAN_ANOMALY": 277.6282, "EPHEMERIS_TYPE": 0, "CLASSIFICATION_TYPE": "U", "NORAD_CAT_ID": 66940, "ELEMENT_SET_NO": 999, "REV_AT_EPOCH": 325, "BSTAR": -0.0095547608, "MEAN_MOTION_DOT": -0.0136519, "MEAN_MOTION_DDOT": 0}, "tle": {"line1": "1 66940U 25286R   25354.58336806 -.01365190  00000+0 -95548-2 0  9995", "line2": "2 66940  53.1560  11.0011 0000495  79.6952 277.6282 15.76271844  3256"}}, "geometry": {"type": "Point", "coordinates": [-120.53098630889379, -45.72160339853171]}}, {"type": "Feature", "properties": {"norad_id": 66941, "name": "STARLINK-36088", "group": "last-30-days", "lat": -43.61347695795746, "lon": -125.18993954932282, "alt_km": 349.02048385238595, "timestamp": "2025-12-20T22:39:09.408975+00:00", "meta": {"OBJECT_NAME": "STARLINK-36088", "OBJECT_ID": "2025-286S", "EPOCH": "2025-12-20T14:00:03.000384", "MEAN_MOTION": 15.76380817, "ECCENTRICITY": 6.461e-05, "INCLINATION": 53.1558, "RA_OF_ASC_NODE": 11.0094, "ARG_OF_PERICENTER": 73.3773, "MEAN_ANOMALY": 279.9044, "EPHEMERIS_TYPE": 0, "CLASSIFICATION_TYPE": "U", "NORAD_CAT_ID": 66941, "ELEMENT_SET_NO": 999, "REV_AT_EPOCH": 325, "BSTAR": -0.010023769, "MEAN_MOTION_DOT": -0.01430751, "MEAN_MOTION_DDOT": 0}, "tle": {"line1": "1 66941U 25286S   25354.58336806 -.01430751  00000+0 -10024-1 0  9997", "line2": "2 66941  53.1558  11.0094 0000646  73.3773 279.9044 15.76380817  3257"}}, "geometry": {"type": "Point", "coordinates": [-125.18993954932282, -43.61347695795746]}}, {"type": "Feature", "properties": {"norad_id": 66942, "name": "STARLINK-36100", "group": "last-30-days", "lat": -46.70286680994278, "lon": -118.06662375808504, "alt_km": 349.3476512163006, "timestamp": "2025-12-20T22:39:09.408984+00:00", "meta": {"OBJECT_NAME": "STARLINK-36100", "OBJECT_ID": "2025-286T", "EPOCH": "2025-12-20T14:00:03.000384", "MEAN_MOTION": 15.76217991, "ECCENTRICITY": 6.644e-05, "INCLINATION": 53.1559, "RA_OF_ASC_NODE": 10.9965, "ARG_OF_PERICENTER": 91.6206, "MEAN_ANOMALY": 267.731, "EPHEMERIS_TYPE": 0, "CLASSIFICATION_TYPE": "U", "NORAD_CAT_ID": 66942, "ELEMENT_SET_NO": 999, "REV_AT_EPOCH": 318, "BSTAR": -0.0094003452, "MEAN_MOTION_DOT": -0.01342709, "MEAN_MOTION_DDOT": 0}, "tle": {"line1": "1 66942U 25286T   25354.58336806 -.01342709  00000+0 -94003-2 0  9993", "line2": "2 66942  53.1559  10.9965 0000664  91.6206 267.7310 15.76217991  3183"}}, "geometry": {"type": "Point", "coordinates": [-118.06662375808504, -46.70286680994278]}}, {"type": "Feature", "properties": {"norad_id": 66943, "name": "STARLINK-36109", "group": "last-30-days", "lat": -47.640058261243674, "lon": -115.48219594583004, "alt_km": 349.70525030663794, "timestamp": "2025-12-20T22:39:09.408994+00:00", "meta": {"OBJECT_NAME": "STARLINK-36109", "OBJECT_ID": "2025-286U", "EPOCH": "2025-12-20T14:00:03.000384", "MEAN_MOTION": 15.76165578, "ECCENTRICITY": 6.582e-05, "INCLINATION": 53.1561, "RA_OF_ASC_NODE": 10.9922, "ARG_OF_PERICENTER": 80.8169, "MEAN_ANOMALY": 280.6361, "EPHEMERIS_TYPE": 0, "CLASSIFICATION_TYPE": "U", "NORAD_CAT_ID": 66943, "ELEMENT_SET_NO": 999, "REV_AT_EPOCH": 318, "BSTAR": -0.0098917423, "MEAN_MOTION_DOT": -0.01402083, "MEAN_MOTION_DDOT": 0}, "tle": {"line1": "1 66943U 25286U   25354.58336806 -.01402083  00000+0 -98917-2 0  9994", "line2": "2 66943  53.1561  10.9922 0000658  80.8169 280.6361 15.76165578  3184"}}, "geometry": {"type": "Point", "coordinates": [-115.48219594583004, -47.640058261243674]}}, {"type": "Feature", "properties": {"norad_id": 66944, "name": "STARLINK-36112", "group": "last-30-days", "lat": -48.49711824390953, "lon": -112.86893123861005, "alt_km": 349.83986637875387, "timestamp": "2025-12-20T22:39:09.409003+00:00", "meta": {"OBJECT_NAME": "STARLINK-36112", "OBJECT_ID": "2025-286V", "EPOCH": "2025-12-20T14:00:03.000384", "MEAN_MOTION": 15.76137571, "ECCENTRICITY": 6.567e-05, "INCLINATION": 53.156, "RA_OF_ASC_NODE": 10.9883, "ARG_OF_PERICENTER": 86.7163, "MEAN_ANOMALY": 276.731, "EPHEMERIS_TYPE": 0, "CLASSIFICATION_TYPE": "U", "NORAD_CAT_ID": 66944, "ELEMENT_SET_NO": 999, "REV_AT_EPOCH": 325, "BSTAR": -0.010011317, "MEAN_MOTION_DOT": -0.01415534, "MEAN_MOTION_DDOT": 0}, "tle": {"line1": "1 66944U 25286V   25354.58336806 -.01415534  00000+0 -10011-1 0  9998", "line2": "2 66944  53.1560  10.9883 0000656  86.7163 276.7310 15.76137571  3257"}}, "geometry": {"type": "Point", "coordinates": [-112.86893123861005, -48.49711824390953]}}, {"type": "Feature", "properties": {"norad_id": 66945, "name": "STARLINK-36110", "group": "last-30-days", "lat": -49.318328845411905, "lon": -110.07786871991323, "alt_km": 350.0180529715317, "timestamp": "2025-12-20T22:39:09.409012+00:00", "meta": {"OBJECT_NAME": "STARLINK-36110", "OBJECT_ID": "2025-286W", "EPOCH": "2025-12-20T14:00:03.000384", "MEAN_MOTION": 15.76044861, "ECCENTRICITY": 8.886e-05, "INCLINATION": 53.1559, "RA_OF_ASC_NODE": 10.9837, "ARG_OF_PERICENTER": 71.0837, "MEAN_ANOMALY": 294.444, "EPHEMERIS_TYPE": 0, "CLASSIFICATION_TYPE": "U", "NORAD_CAT_ID": 66945, "ELEMENT_SET_NO": 999, "REV_AT_EPOCH": 325, "BSTAR": -0.0092317186, "MEAN_MOTION_DOT": -0.01312202, "MEAN_MOTION_DDOT": 0}, "tle": {"line1": "1 66945U 25286W   25354.58336806 -.01312202  00000+0 -92317-2 0  9997", "line2": "2 66945  53.1559  10.9837 0000888  71.0837 294.4440 15.76044861  3257"}}, "geometry": {"type": "Point", "coordinates": [-110.07786871991323, -49.318328845411905]}}, {"type": "Feature", "properties": {"norad_id": 66946, "name": "STARLINK-36115", "group": "last-30-days", "lat": -50.04736024357739, "lon": -107.28759347619125, "alt_km": 350.30977782388254, "timestamp": "2025-12-20T22:39:09.409020+00:00", "meta": {"OBJECT_NAME": "STARLINK-36115", "OBJECT_ID": "2025-286X", "EPOCH": "2025-12-20T14:00:03.000384", "MEAN_MOTION": 15.76006123, "ECCENTRICITY": 0.00010348, "INCLINATION": 53.1558, "RA_OF_ASC_NODE": 10.9797, "ARG_OF_PERICENTER": 74.5186, "MEAN_ANOMALY": 293.0235, "EPHEMERIS_TYPE": 0, "CLASSIFICATION_TYPE": "U", "NORAD_CAT_ID": 66946, "ELEMENT_SET_NO": 999, "REV_AT_EPOCH": 325, "BSTAR": -0.0094515438, "MEAN_MOTION_DOT": -0.01338121, "MEAN_MOTION_DDOT": 0}, "tle": {"line1": "1 66946U 25286X   25354.58336806 -.01338121  00000+0 -94515-2 0  9998", "line2": "2 66946  53.1558  10.9797 0001034  74.5186 293.0235 15.76006123  3257"}}, "geometry": {"type": "Point", "coordinates": [-107.28759347619125, -50.04736024357739]}}, {"type": "Feature", "properties": {"norad_id": 66947, "name": "STARLINK-36089", "group": "last-30-days", "lat": -51.29422108670096, "lon": -101.46808644125221, "alt_km": 350.566983664874, "timestamp": "2025-12-20T22:39:09.409029+00:00", "meta": {"OBJECT_NAME": "STARLINK-36089", "OBJECT_ID": "2025-286Y", "EPOCH": "2025-12-20T14:00:03.000384", "MEAN_MOTION": 15.75924582, "ECCENTRICITY": 6.003e-05, "INCLINATION": 53.1556, "RA_OF_ASC_NODE": 10.9708, "ARG_OF_PERICENTER": 79.6518, "MEAN_ANOMALY": 291.9662, "EPHEMERIS_TYPE": 0, "CLASSIFICATION_TYPE": "U", "NORAD_CAT_ID": 66947, "ELEMENT_SET_NO": 999, "REV_AT_EPOCH": 325, "BSTAR": -0.010357598, "MEAN_MOTION_DOT": -0.01446555, "MEAN_MOTION_DDOT": 0}, "tle": {"line1": "1 66947U 25286Y   25354.58336806 -.01446555  00000+0 -10358-1 0  9992", "line2": "2 66947  53.1556  10.9708 0000600  79.6518 291.9662 15.75924582  3259"}}, "geometry": {"type": "Point", "coordinates": [-101.46808644125221, -51.29422108670096]}}]}